STARLINK-1443           
1 45660U 20035D   26077.10091783  .00043141  00000+0  16621-2 0  9992
2 45660  53.1383  26.0965 0003471  89.7237 270.4159 15.25944608320046
STARLINK-1451           
1 45668U 20035M   26077.15104462  .00025738  00000+0  15542-2 0  9997
2 45668  53.0546  27.8451 0001984  64.9652 295.1544 15.10562440320020
STARLINK-1460           
1 45676U 20035V   26077.54719205  .00058805  00000+0  19982-2 0  9999
2 45676  53.1614  23.8057 0001452  99.5251 260.5913 15.29935043320077
STARLINK-1392           
1 45677U 20035W   26077.54463029  .00007017  00000+0  25523-3 0  9998
2 45677  53.1553  23.6823 0001744  90.8265 269.2935 15.29361721320113
STARLINK-1417           
1 45693U 20035AN  26077.05415751  .00027194  00000+0  15290-2 0  9998
2 45693  53.0535  16.3826 0001746 249.5740 110.5064 15.13109216320163
STARLINK-1403           
1 45701U 20035AW  26077.48705391  .00001453  00000+0  62682-4 0  9996
2 45701  53.1574 355.7044 0001738  83.0846 277.0352 15.29355014320499
STARLINK-1434           
1 45712U 20035BH  26077.01066518  .00028999  00000+0  10693-2 0  9995
2 45712  53.0537 341.4658 0005196 123.4288 236.7208 15.27583421320667
STARLINK-1506           
1 45747U 20038T   26077.49998543  .00007120  00000+0  28258-3 0  9990
2 45747  53.0766 161.6040 0002379 285.1506  74.9229 15.26430019318031
STARLINK-1477           
1 45754U 20038AA  26077.54099019  .00026621  00000+0  14205-2 0  9997
2 45754  53.0496 172.7137 0002080  26.3533 333.7565 15.14984540317873
STARLINK-1470           
1 45772U 20038AU  26077.43637735  .00033892  00000+0  12015-2 0  9993
2 45772  53.0451 133.6928 0002355  27.5137 332.5985 15.28802787318417
STARLINK-1522           
1 46027U 20055A   26077.42280146  .00024132  00000+0  15034-2 0  9996
2 46027  53.0630  87.1101 0002195  74.6191 285.5042 15.09457273310206
STARLINK-1523           
1 46028U 20055B   26077.58334490  .00066552  00000+0  23226-2 0  9990
2 46028  53.1503  85.3353 0000931  89.1539 205.9849 15.29008769  5733
STARLINK-1526           
1 46029U 20055C   26077.58334490  .00069856  00000+0  24444-2 0  9994
2 46029  53.1499  85.2992 0000882  62.0207 293.0506 15.28899833  5796
STARLINK-1555           
1 46032U 20055F   26077.58334490  .00033250  00000+0  11615-2 0  9993
2 46032  53.1531  85.3751 0001472  73.4722 319.7801 15.29296806  5746
