[
  {
    "OBJECT_NAME": "STARLINK-1443",
    "OBJECT_ID": "2020-035D",
    "EPOCH": "2026-03-18T02:25:19.300512",
    "MEAN_MOTION": 15.25944608,
    "ECCENTRICITY": 0.00034714,
    "INCLINATION": 53.1383,
    "RA_OF_ASC_NODE": 26.0965,
    "ARG_OF_PERICENTER": 89.7237,
    "MEAN_ANOMALY": 270.4159,
    "EPHEMERIS_TYPE": 0,
    "CLASSIFICATION_TYPE": "U",
    "NORAD_CAT_ID": 45660,
    "ELEMENT_SET_NO": 999,
    "REV_AT_EPOCH": 32004,
    "BSTAR": 0.0016620582,
    "MEAN_MOTION_DOT": 0.00043141,
    "MEAN_MOTION_DDOT": 0
  },
  {
    "OBJECT_NAME": "STARLINK-1451",
    "OBJECT_ID": "2020-035M",
    "EPOCH": "2026-03-18T03:37:30.255168",
    "MEAN_MOTION": 15.1056244,
    "ECCENTRICITY": 0.00019847,
    "INCLINATION": 53.0546,
    "RA_OF_ASC_NODE": 27.8451,
    "ARG_OF_PERICENTER": 64.9652,
    "MEAN_ANOMALY": 295.1544,
    "EPHEMERIS_TYPE": 0,
    "CLASSIFICATION_TYPE": "U",
    "NORAD_CAT_ID": 45668,
    "ELEMENT_SET_NO": 999,
    "REV_AT_EPOCH": 32002,
    "BSTAR": 0.0015541588,
    "MEAN_MOTION_DOT": 0.00025738,
    "MEAN_MOTION_DDOT": 0
  },
  {
    "OBJECT_NAME": "STARLINK-1460",
    "OBJECT_ID": "2020-035V",
    "EPOCH": "2026-03-18T13:07:57.393120",
    "MEAN_MOTION": 15.29935043,
    "ECCENTRICITY": 0.0001452,
    "INCLINATION": 53.1614,
    "RA_OF_ASC_NODE": 23.8057,
    "ARG_OF_PERICENTER": 99.5251,
    "MEAN_ANOMALY": 260.5913,
    "EPHEMERIS_TYPE": 0,
    "CLASSIFICATION_TYPE": "U",
    "NORAD_CAT_ID": 45676,
    "ELEMENT_SET_NO": 999,
    "REV_AT_EPOCH": 32007,
    "BSTAR": 0.0019982,
    "MEAN_MOTION_DOT": 0.00058805,
    "MEAN_MOTION_DDOT": 0
  },
  {
    "OBJECT_NAME": "STARLINK-1392",
    "OBJECT_ID": "2020-035W",
    "EPOCH": "2026-03-18T13:04:16.057056",
    "MEAN_MOTION": 15.29361721,
    "ECCENTRICITY": 0.0001744,
    "INCLINATION": 53.1553,
    "RA_OF_ASC_NODE": 23.6823,
    "ARG_OF_PERICENTER": 90.8265,
    "MEAN_ANOMALY": 269.2935,
    "EPHEMERIS_TYPE": 0,
    "CLASSIFICATION_TYPE": "U",
    "NORAD_CAT_ID": 45677,
    "ELEMENT_SET_NO": 999,
    "REV_AT_EPOCH": 32011,
    "BSTAR": 0.00025523,
    "MEAN_MOTION_DOT": 7.017e-05,
    "MEAN_MOTION_DDOT": 0
  },
  {
    "OBJECT_NAME": "STARLINK-1417",
    "OBJECT_ID": "2020-035AN",
    "EPOCH": "2026-03-18T01:17:59.208864",
    "MEAN_MOTION": 15.13109216,
    "ECCENTRICITY": 0.00017469,
    "INCLINATION": 53.0535,
    "RA_OF_ASC_NODE": 16.3826,
    "ARG_OF_PERICENTER": 249.574,
    "MEAN_ANOMALY": 110.5064,
    "EPHEMERIS_TYPE": 0,
    "CLASSIFICATION_TYPE": "U",
    "NORAD_CAT_ID": 45693,
    "ELEMENT_SET_NO": 999,
    "REV_AT_EPOCH": 32016,
    "BSTAR": 0.0015290045,
    "MEAN_MOTION_DOT": 0.00027194,
    "MEAN_MOTION_DDOT": 0
  },
  {
    "OBJECT_NAME": "STARLINK-1403",
    "OBJECT_ID": "2020-035AW",
    "EPOCH": "2026-03-18T11:41:21.457824",
    "MEAN_MOTION": 15.29355014,
    "ECCENTRICITY": 0.0001738,
    "INCLINATION": 53.1574,
    "RA_OF_ASC_NODE": 355.7044,
    "ARG_OF_PERICENTER": 83.0846,
    "MEAN_ANOMALY": 277.0352,
    "EPHEMERIS_TYPE": 0,
    "CLASSIFICATION_TYPE": "U",
    "NORAD_CAT_ID": 45701,
    "ELEMENT_SET_NO": 999,
    "REV_AT_EPOCH": 32049,
    "BSTAR": 6.2682e-05,
    "MEAN_MOTION_DOT": 1.453e-05,
    "MEAN_MOTION_DDOT": 0
  },
  {
    "OBJECT_NAME": "STARLINK-1434",
    "OBJECT_ID": "2020-035BH",
    "EPOCH": "2026-03-18T00:15:21.471552",
    "MEAN_MOTION": 15.27583421,
    "ECCENTRICITY": 0.00051965,
    "INCLINATION": 53.0537,
    "RA_OF_ASC_NODE": 341.4658,
    "ARG_OF_PERICENTER": 123.4288,
    "MEAN_ANOMALY": 236.7208,
    "EPHEMERIS_TYPE": 0,
    "CLASSIFICATION_TYPE": "U",
    "NORAD_CAT_ID": 45712,
    "ELEMENT_SET_NO": 999,
    "REV_AT_EPOCH": 32066,
    "BSTAR": 0.0010692517,
    "MEAN_MOTION_DOT": 0.00028999,
    "MEAN_MOTION_DDOT": 0
  },
  {
    "OBJECT_NAME": "STARLINK-1506",
    "OBJECT_ID": "2020-038T",
    "EPOCH": "2026-03-18T11:59:58.741152",
    "MEAN_MOTION": 15.26430019,
    "ECCENTRICITY": 0.0002379,
    "INCLINATION": 53.0766,
    "RA_OF_ASC_NODE": 161.604,
    "ARG_OF_PERICENTER": 285.1506,
    "MEAN_ANOMALY": 74.9229,
    "EPHEMERIS_TYPE": 0,
    "CLASSIFICATION_TYPE": "U",
    "NORAD_CAT_ID": 45747,
    "ELEMENT_SET_NO": 999,
    "REV_AT_EPOCH": 31803,
    "BSTAR": 0.00028258,
    "MEAN_MOTION_DOT": 7.12e-05,
    "MEAN_MOTION_DDOT": 0
  },
  {
    "OBJECT_NAME": "STARLINK-1477",
    "OBJECT_ID": "2020-038AA",
    "EPOCH": "2026-03-18T12:59:01.552416",
    "MEAN_MOTION": 15.1498454,
    "ECCENTRICITY": 0.000208,
    "INCLINATION": 53.0496,
    "RA_OF_ASC_NODE": 172.7137,
    "ARG_OF_PERICENTER": 26.3533,
    "MEAN_ANOMALY": 333.7565,
    "EPHEMERIS_TYPE": 0,
    "CLASSIFICATION_TYPE": "U",
    "NORAD_CAT_ID": 45754,
    "ELEMENT_SET_NO": 999,
    "REV_AT_EPOCH": 31787,
    "BSTAR": 0.0014205,
    "MEAN_MOTION_DOT": 0.00026621,
    "MEAN_MOTION_DDOT": 0
  },
  {
    "OBJECT_NAME": "STARLINK-1470",
    "OBJECT_ID": "2020-038AU",
    "EPOCH": "2026-03-18T10:28:23.003040",
    "MEAN_MOTION": 15.28802787,
    "ECCENTRICITY": 0.0002355,
    "INCLINATION": 53.0451,
    "RA_OF_ASC_NODE": 133.6928,
    "ARG_OF_PERICENTER": 27.5137,
    "MEAN_ANOMALY": 332.5985,
    "EPHEMERIS_TYPE": 0,
    "CLASSIFICATION_TYPE": "U",
    "NORAD_CAT_ID": 45772,
    "ELEMENT_SET_NO": 999,
    "REV_AT_EPOCH": 31841,
    "BSTAR": 0.0012015,
    "MEAN_MOTION_DOT": 0.00033892,
    "MEAN_MOTION_DDOT": 0
  },
  {
    "OBJECT_NAME": "STARLINK-1522",
    "OBJECT_ID": "2020-055A",
    "EPOCH": "2026-03-18T10:08:50.046144",
    "MEAN_MOTION": 15.09457273,
    "ECCENTRICITY": 0.0002195,
    "INCLINATION": 53.063,
    "RA_OF_ASC_NODE": 87.1101,
    "ARG_OF_PERICENTER": 74.6191,
    "MEAN_ANOMALY": 285.5042,
    "EPHEMERIS_TYPE": 0,
    "CLASSIFICATION_TYPE": "U",
    "NORAD_CAT_ID": 46027,
    "ELEMENT_SET_NO": 999,
    "REV_AT_EPOCH": 31020,
    "BSTAR": 0.0015034,
    "MEAN_MOTION_DOT": 0.00024132,
    "MEAN_MOTION_DDOT": 0
  },
  {
    "OBJECT_NAME": "STARLINK-1523",
    "OBJECT_ID": "2020-055B",
    "EPOCH": "2026-03-18T14:00:00.999360",
    "MEAN_MOTION": 15.29008769,
    "ECCENTRICITY": 9.31e-05,
    "INCLINATION": 53.1503,
    "RA_OF_ASC_NODE": 85.3353,
    "ARG_OF_PERICENTER": 89.1539,
    "MEAN_ANOMALY": 205.9849,
    "EPHEMERIS_TYPE": 0,
    "CLASSIFICATION_TYPE": "U",
    "NORAD_CAT_ID": 46028,
    "ELEMENT_SET_NO": 999,
    "REV_AT_EPOCH": 573,
    "BSTAR": 0.0023226,
    "MEAN_MOTION_DOT": 0.00066552,
    "MEAN_MOTION_DDOT": 0
  },
  {
    "OBJECT_NAME": "STARLINK-1526",
    "OBJECT_ID": "2020-055C",
    "EPOCH": "2026-03-18T14:00:00.999360",
    "MEAN_MOTION": 15.28899833,
    "ECCENTRICITY": 8.82e-05,
    "INCLINATION": 53.1499,
    "RA_OF_ASC_NODE": 85.2992,
    "ARG_OF_PERICENTER": 62.0207,
    "MEAN_ANOMALY": 293.0506,
    "EPHEMERIS_TYPE": 0,
    "CLASSIFICATION_TYPE": "U",
    "NORAD_CAT_ID": 46029,
    "ELEMENT_SET_NO": 999,
    "REV_AT_EPOCH": 579,
    "BSTAR": 0.0024444,
    "MEAN_MOTION_DOT": 0.00069856,
    "MEAN_MOTION_DDOT": 0
  },
  {
    "OBJECT_NAME": "STARLINK-1555",
    "OBJECT_ID": "2020-055F",
    "EPOCH": "2026-03-18T14:00:00.999360",
    "MEAN_MOTION": 15.29296806,
    "ECCENTRICITY": 0.0001472,
    "INCLINATION": 53.1531,
    "RA_OF_ASC_NODE": 85.3751,
    "ARG_OF_PERICENTER": 73.4722,
    "MEAN_ANOMALY": 319.7801,
    "EPHEMERIS_TYPE": 0,
    "CLASSIFICATION_TYPE": "U",
    "NORAD_CAT_ID": 46032,
    "ELEMENT_SET_NO": 999,
    "REV_AT_EPOCH": 574,
    "BSTAR": 0.0011615,
    "MEAN_MOTION_DOT": 0.0003325,
    "MEAN_MOTION_DDOT": 0
  }
]